STARLINK-3944           
1 52544U 22051M   24142.34499828  .00014289  00000+0  91330-3 0  9992
2 52544  53.2160 205.0699 0001812 104.4385 255.6809 15.08870308112130
STARLINK-3939           
1 52545U 22051N   24142.60428413  .00540823  14525-3  86803-3 0  9992
2 52545  53.2087 167.7185 0000673  60.6426 299.4674 16.03037479112750
STARLINK-3948           
1 52546U 22051P   24142.41814786  .00024743  00000+0  15666-2 0  9999
2 52546  53.2151 199.4951 0000963  59.9789 300.1298 15.08854980112223
STARLINK-3869           
1 52547U 22051Q   24142.48080552  .00027559  00000+0  17303-2 0  9991
2 52547  53.2170 204.4518 0001415  77.7399 282.3751 15.09105364112152
STARLINK-3931           
1 52548U 22051R   24142.35834150  .00018647  00000+0  11863-2 0  9992
2 52548  53.2172 199.9979 0001390  94.3812 265.7339 15.08849920112284
STARLINK-3935           
1 52549U 22051S   24142.37673766  .00004051  00000+0  27241-3 0  9991
2 52549  53.2167 199.9144 0001444  75.3375 284.7778 15.08847790112210
STARLINK-3965           
1 52550U 22051T   24142.36570294  .00002531  00000+0  17700-3 0  9994
2 52550  53.2161 199.9583 0001324  82.4937 277.6206 15.08848198112213
STARLINK-3969           
1 52551U 22051U   24142.37306471  .00013524  00000+0  86617-3 0  9997
2 52551  53.2163 199.9302 0002262   6.4321 353.6700 15.08838850112218
STARLINK-3966           
1 52552U 22051V   24142.36940357  .00005394  00000+0  35673-3 0  9996
2 52552  53.2162 200.0974 0001413  88.5423 271.5731 15.08838753112212
STARLINK-3858           
1 52553U 22051W   24142.40245480  .00002801  00000+0  19398-3 0  9993
2 52553  53.2159 199.4440 0002350 143.8671 216.2480 15.08844357112224
STARLINK-3770           
1 52554U 22051X   24142.34131958  .00017574  00000+0  11192-2 0  9997
2 52554  53.2163 205.0726 0001175 102.3655 257.7468 15.08850217112135
STARLINK-3949           
1 52555U 22051Y   24142.42007340  .00009587  00000+0  54872-3 0  9992
2 52555  53.2156 198.9409 0004562   4.2138 355.8894 15.13271147112234
STARLINK-3763           
1 52556U 22051Z   24142.35618493  .00001893  00000+0  12573-3 0  9996
2 52556  53.2170 185.8062 0001338 100.1712 259.9432 15.12100537112418
STARLINK-3943           
1 52557U 22051AA  24142.48346874  .00004209  00000+0  28240-3 0  9994
2 52557  53.2157 199.4311 0001256  75.8744 284.2387 15.08837473112235
STARLINK-3954           
1 52558U 22051AB  24142.41814073  .00000390  00000+0  42595-4 0  9996
2 52558  53.2158 189.7258 0001615  85.2250 274.8927 15.08840112112357
STARLINK-3953           
1 52559U 22051AC  24142.36296174  .00021715  00000+0  13782-2 0  9995
2 52559  53.2163 190.1597 0001376  89.8086 270.3064 15.08840979112340
STARLINK-3956           
1 52560U 22051AD  24142.41446151  .00003097  00000+0  21256-3 0  9994
2 52560  53.2157 189.7419 0000830 106.4827 253.6256 15.08838640112355
STARLINK-3955           
1 52561U 22051AE  24142.39651825  .00020994  00000+0  13331-2 0  9997
2 52561  53.2169 204.8253 0001465  90.4992 269.6168 15.08842897112149
STARLINK-3957           
1 52562U 22051AF  24142.34086570  .00021820  00000+0  13843-2 0  9999
2 52562  53.2160 190.0764 0001441  49.0634 311.0483 15.08853992112343
STARLINK-3942           
1 52563U 22051AG  24142.40020034  .00001532  00000+0  11432-3 0  9991
2 52563  53.2158 204.7998 0001601 116.1254 243.9903 15.08845654112149
STARLINK-3959           
1 52564U 22051AH  24142.39379656  .00016096  00000+0  10269-2 0  9994
2 52564  53.2166 204.8475 0001476  85.1529 274.9632 15.08847247112143
STARLINK-3911           
1 52565U 22051AJ  24142.34454516  .00001818  00000+0  13233-3 0  9990
2 52565  53.2164 190.0580 0001258  87.0539 273.0597 15.08829951112349
STARLINK-3938           
1 52566U 22051AK  24142.37075953  .00003818  00000+0  25786-3 0  9996
2 52566  53.2162 204.9387 0001879 111.7973 248.3219 15.08841882112145
STARLINK-3929           
1 52567U 22051AL  24142.33718362  .00003813  00000+0  25757-3 0  9994
2 52567  53.2166 190.0897 0001515  87.9679 272.1486 15.08835096112348
STARLINK-3930           
1 52568U 22051AM  24142.39238408  .00002651  00000+0  18453-3 0  9993
2 52568  53.2158 189.8413 0001421 104.1377 255.9774 15.08847648112359
STARLINK-3927           
1 52569U 22051AN  24142.39973800  .00010602  00000+0  68289-3 0  9993
2 52569  53.2160 189.8112 0001572  59.7857 300.3290 15.08856305112352
STARLINK-3924           
1 52570U 22051AP  24142.38870653  .00003460  00000+0  23542-3 0  9993
2 52570  53.2167 189.8582 0001248  58.5360 301.5754 15.08830774112426
STARLINK-3901           
1 52574U 22051AQ  24142.39605321  .00013629  00000+0  87290-3 0  9994
2 52574  53.2145 189.8239 0000908  98.6451 261.4644 15.08832447112356
STARLINK-3920           
1 52575U 22051AR  24142.38501651  .00006762  00000+0  44239-3 0  9991
2 52575  53.2156 189.8753 0001664 124.8441 235.2708 15.08851416112358
STARLINK-3932           
1 52576U 22051AS  24142.37861657  .00007671  00000+0  49944-3 0  9994
2 52576  53.2170 189.9104 0001911  78.2436 281.8770 15.08848284112352
STARLINK-3836           
1 52577U 22051AT  24142.49588007  .00000765  00000+0  66149-4 0  9997
2 52577  53.2165 204.3769 0001240  76.8347 283.2784 15.08840441112163
STARLINK-3833           
1 52578U 22051AU  24142.36708552  .00006748  00000+0  44157-3 0  9994
2 52578  53.2160 204.9534 0001395  89.8236 270.2916 15.08845242112142
STARLINK-3893           
1 52579U 22051AV  24142.48851944  .00005471  00000+0  36152-3 0  9990
2 52579  53.2164 204.4104 0001614  62.3140 297.8016 15.08841880112161
STARLINK-3919           
1 52580U 22051AW  24142.49315995  .00001056  00000+0  84411-4 0  9991
2 52580  53.2150 204.4036 0001110 124.7180 235.3917 15.08854576112163
STARLINK-3915           
1 52581U 22051AX  24142.37398374  .00017022  00000+0  10849-2 0  9993
2 52581  53.2154 189.9272 0001619  71.4106 288.7062 15.08842817112356
STARLINK-3886           
1 52582U 22051AY  24142.38134062  .00001348  00000+0  10274-3 0  9994
2 52582  53.2165 189.8852 0001528  85.8149 274.3018 15.08840938112351
STARLINK-3895           
1 52583U 22051AZ  24142.37029928  .00010403  00000+0  67039-3 0  9991
2 52583  53.2147 189.9361 0001106  85.8979 274.2140 15.08859465112351
STARLINK-3922           
1 52584U 22051BA  24142.37765346  .00011750  00000+0  75485-3 0  9993
2 52584  53.2157 189.9100 0005630 170.9838 189.1256 15.08846828112351
STARLINK-3906           
1 52585U 22051BB  24142.35925220  .00019396  00000+0  12332-2 0  9996
2 52585  53.2165 189.9554 0001510  85.7748 274.3416 15.08846297112355
STARLINK-3910           
1 52586U 22051BC  24142.36661966  .00000364  00000+0  40942-4 0  9997
2 52586  53.2158 189.9548 0001439  85.8367 274.2790 15.08849773112355
STARLINK-3867           
1 52587U 22051BD  24142.27924311  .00015783  00000+0  10072-2 0  9994
2 52587  53.2155 190.2057 0001264  59.7752 300.3365 15.08851243112340
STARLINK-3917           
1 52588U 22051BE  24142.42181851  .00001902  00000+0  13751-3 0  9992
2 52588  53.2165 189.7149 0001272  87.8073 272.3064 15.08845763112438
STARLINK-4019           
1 52598U 22052A   24141.99632525  .00012392  00000+0  79523-3 0  9998
2 52598  53.2170 356.6196 0001304  66.0819 294.0310 15.08842858112296
STARLINK-4024           
1 52599U 22052B   24142.84503504  .00004586  00000+0  30604-3 0  9991
2 52599  53.2178 347.9138 0001072  96.6399 263.4716 15.08839267112063
STARLINK-4026           
1 52600U 22052C   24142.82294329  .00007276  00000+0  47463-3 0  9994
2 52600  53.2161 347.9110 0001081 109.2518 250.8592 15.08852199112063
STARLINK-4027           
1 52601U 22052D   24142.83030450  .00006372  00000+0  41816-3 0  9991
2 52601  53.2172 347.8799 0001549 113.4059 246.7096 15.08833342112066
STARLINK-4012           
1 52602U 22052E   24142.82661744  .00019920  00000+0  12653-2 0  9996
2 52602  53.2167 347.8912 0001470 150.8142 209.2932 15.08864417112069
STARLINK-4016           
1 52603U 22052F   24142.81286352  .00004234  00000+0  28398-3 0  9990
2 52603  53.2174 347.9682 0001383  88.9302 271.1848 15.08837452112068
STARLINK-4013           
1 52604U 22052G   24142.81925503  .00007604  00000+0  49513-3 0  9995
2 52604  53.2164 347.9214 0002438 162.0751 198.0328 15.08854361112061
STARLINK-4000           
1 52605U 22052H   24141.97149559  .00001242  00000+0  96117-4 0  9996
2 52605  53.2175 356.5142 0001163  91.8480 268.2646 15.08836146111492
STARLINK-3928           
1 52606U 22052J   24142.81558258  .00022441  00000+0  14229-2 0  9997
2 52606  53.2167 347.9461 0001156  80.4526 279.6597 15.08858285112062
STARLINK-3947           
1 52607U 22052K   24142.84735962  .00028308  00000+0  17884-2 0  9998
2 52607  53.2172 352.8123 0001347  66.5878 293.5256 15.08863838111994
STARLINK-3979           
1 52608U 22052L   24142.80821950  .00012279  00000+0  78785-3 0  9996
2 52608  53.2171 347.9774 0001238 124.5496 235.5613 15.08857184112060
STARLINK-3997           
1 52609U 22052M   24142.86340268  .00011269  00000+0  72439-3 0  9999
2 52609  53.2177 347.6787 0001225  74.9678 285.1450 15.08869195112070
STARLINK-3998           
1 52610U 22052N   24142.85008025  .00022359  00000+0  14179-2 0  9990
2 52610  53.2171 352.7905 0001177 118.6209 241.4902 15.08854029111994
STARLINK-3980           
1 52611U 22052P   24142.84272636  .00006120  00000+0  40224-3 0  9990
2 52611  53.2182 352.8141 0001685  64.7009 295.4157 15.08841778111991
STARLINK-4002           
1 52612U 22052Q   24142.87078308  .00016843  00000+0  10734-2 0  9999
2 52612  53.2180 347.6961 0000971  90.0858 270.0246 15.08854349112079
STARLINK-3921           
1 52613U 22052R   24142.85330499  .00003472  00000+0  23609-3 0  9990
2 52613  53.2171 337.7721 0001088  89.1207 270.9910 15.08849082112201
STARLINK-3982           
1 52614U 22052S   24142.85698143  .00008351  00000+0  54203-3 0  9999
2 52614  53.2170 337.7584 0001139  40.8548 319.2529 15.08849381112202
